[{"OBJECT_NAME":"STARLINK-31316","OBJECT_ID":"2024-041S","EPOCH":"2025-12-21T16:29:57.786432","MEAN_MOTION":15.27579026,"ECCENTRICITY":6.874e-5,"INCLINATION":43.0006,"RA_OF_ASC_NODE":344.3983,"ARG_OF_PERICENTER":292.215,"MEAN_ANOMALY":67.8628,"EPHEMERIS_TYPE":0,"CLASSIFICATION_TYPE":"U","NORAD_CAT_ID":59090,"ELEMENT_SET_NO":999,"REV_AT_EPOCH":10282,"BSTAR":7.486636e-6,"MEAN_MOTION_DOT":-5.6e-7,"MEAN_MOTION_DDOT":0},{"OBJECT_NAME":"STARLINK-31310","OBJECT_ID":"2024-041U","EPOCH":"2025-12-22T18:38:07.079712","MEAN_MOTION":15.2757513,"ECCENTRICITY":0.0001401,"INCLINATION":42.9967,"RA_OF_ASC_NODE":25.4985,"ARG_OF_PERICENTER":282.7251,"MEAN_ANOMALY":77.3444,"EPHEMERIS_TYPE":0,"CLASSIFICATION_TYPE":"U","NORAD_CAT_ID":59092,"ELEMENT_SET_NO":999,"REV_AT_EPOCH":10250,"BSTAR":-7.2545e-5,"MEAN_MOTION_DOT":-2.257e-5,"MEAN_MOTION_DDOT":0},{"OBJECT_NAME":"STARLINK-31343","OBJECT_ID":"2024-041V","EPOCH":"2025-12-21T10:56:29.933664","MEAN_MOTION":15.27583108,"ECCENTRICITY":0.00011211,"INCLINATION":42.9989,"RA_OF_ASC_NODE":32.782,"ARG_OF_PERICENTER":277.8767,"MEAN_ANOMALY":82.1957,"EPHEMERIS_TYPE":0,"CLASSIFICATION_TYPE":"U","NORAD_CAT_ID":59093,"ELEMENT_SET_NO":999,"REV_AT_EPOCH":10235,"BSTAR":9.7713596e-5,"MEAN_MOTION_DOT":2.428e-5,"MEAN_MOTION_DDOT":0},{"OBJECT_NAME":"STARLINK-31295","OBJECT_ID":"2024-041X","EPOCH":"2025-12-22T19:22:19.995168","MEAN_MOTION":15.27577934,"ECCENTRICITY":6.17e-5,"INCLINATION":43.0018,"RA_OF_ASC_NODE":24.8675,"ARG_OF_PERICENTER":6.5292,"MEAN_ANOMALY":353.5567,"EPHEMERIS_TYPE":0,"CLASSIFICATION_TYPE":"U","NORAD_CAT_ID":59095,"ELEMENT_SET_NO":999,"REV_AT_EPOCH":10251,"BSTAR":-2.9337e-5,"MEAN_MOTION_DOT":-1.069e-5,"MEAN_MOTION_DDOT":0},{"OBJECT_NAME":"STARLINK-31291","OBJECT_ID":"2024-041Y","EPOCH":"2025-12-22T03:37:03.302688","MEAN_MOTION":15.27581165,"ECCENTRICITY":0.00017653,"INCLINATION":43.0058,"RA_OF_ASC_NODE":28.5383,"ARG_OF_PERICENTER":283.3492,"MEAN_ANOMALY":76.7163,"EPHEMERIS_TYPE":0,"CLASSIFICATION_TYPE":"U","NORAD_CAT_ID":59096,"ELEMENT_SET_NO":999,"REV_AT_EPOCH":10241,"BSTAR":2.9529883e-5,"MEAN_MOTION_DOT":5.5e-6,"MEAN_MOTION_DDOT":0},{"OBJECT_NAME":"STARLINK-31312","OBJECT_ID":"2024-044A","EPOCH":"2025-12-22T02:17:15.523584","MEAN_MOTION":15.27581501,"ECCENTRICITY":0.00011953,"INCLINATION":43.0003,"RA_OF_ASC_NODE":134.539,"ARG_OF_PERICENTER":274.7108,"MEAN_ANOMALY":85.3607,"EPHEMERIS_TYPE":0,"CLASSIFICATION_TYPE":"U","NORAD_CAT_ID":59152,"ELEMENT_SET_NO":999,"REV_AT_EPOCH":10231,"BSTAR":8.3835202e-5,"MEAN_MOTION_DOT":2.046e-5,"MEAN_MOTION_DDOT":0},{"OBJECT_NAME":"STARLINK-31308","OBJECT_ID":"2024-044B","EPOCH":"2025-12-22T10:42:32.307264","MEAN_MOTION":15.27550983,"ECCENTRICITY":0.00033563,"INCLINATION":43.0063,"RA_OF_ASC_NODE":136.4283,"ARG_OF_PERICENTER":277.9214,"MEAN_ANOMALY":82.1257,"EPHEMERIS_TYPE":0,"CLASSIFICATION_TYPE":"U","NORAD_CAT_ID":59153,"ELEMENT_SET_NO":999,"REV_AT_EPOCH":10233,"BSTAR":0.00034783068,"MEAN_MOTION_DOT":9.313e-5,"MEAN_MOTION_DDOT":0},{"OBJECT_NAME":"STARLINK-31270","OBJECT_ID":"2024-044C","EPOCH":"2025-12-21T19:23:46.303584","MEAN_MOTION":15.2758239,"ECCENTRICITY":0.0001457,"INCLINATION":43.0008,"RA_OF_ASC_NODE":186.9436,"ARG_OF_PERICENTER":264.7181,"MEAN_ANOMALY":95.3505,"EPHEMERIS_TYPE":0,"CLASSIFICATION_TYPE":"U","NORAD_CAT_ID":59154,"ELEMENT_SET_NO":999,"REV_AT_EPOCH":10168,"BSTAR":3.7284986e-5,"MEAN_MOTION_DOT":7.64e-6,"MEAN_MOTION_DDOT":0},{"OBJECT_NAME":"STARLINK-31341","OBJECT_ID":"2024-044D","EPOCH":"2025-12-22T12:59:08.782368","MEAN_MOTION":15.27581068,"ECCENTRICITY":0.00012958,"INCLINATION":43.0008,"RA_OF_ASC_NODE":186.4271,"ARG_OF_PERICENTER":266.4991,"MEAN_ANOMALY":93.5712,"EPHEMERIS_TYPE":0,"CLASSIFICATION_TYPE":"U","NORAD_CAT_ID":59155,"ELEMENT_SET_NO":999,"REV_AT_EPOCH":10172,"BSTAR":3.3878075e-5,"MEAN_MOTION_DOT":6.7e-6,"MEAN_MOTION_DDOT":0},{"OBJECT_NAME":"STARLINK-31338","OBJECT_ID":"2024-044E","EPOCH":"2025-12-21T19:37:52.843008","MEAN_MOTION":15.27580572,"ECCENTRICITY":0.00015229,"INCLINATION":43,"RA_OF_ASC_NODE":190.4581,"ARG_OF_PERICENTER":272.3121,"MEAN_ANOMALY":87.7556,"EPHEMERIS_TYPE":0,"CLASSIFICATION_TYPE":"U","NORAD_CAT_ID":59156,"ELEMENT_SET_NO":999,"REV_AT_EPOCH":10161,"BSTAR":0.00012255878,"MEAN_MOTION_DOT":3.112e-5,"MEAN_MOTION_DDOT":0},{"OBJECT_NAME":"STARLINK-31334","OBJECT_ID":"2024-044F","EPOCH":"2025-12-22T06:25:52.289184","MEAN_MOTION":15.27581193,"ECCENTRICITY":0.00013528,"INCLINATION":43.0018,"RA_OF_ASC_NODE":187.8135,"ARG_OF_PERICENTER":264.6069,"MEAN_ANOMALY":95.4628,"EPHEMERIS_TYPE":0,"CLASSIFICATION_TYPE":"U","NORAD_CAT_ID":59157,"ELEMENT_SET_NO":999,"REV_AT_EPOCH":10168,"BSTAR":4.7970726e-5,"MEAN_MOTION_DOT":1.058e-5,"MEAN_MOTION_DDOT":0},{"OBJECT_NAME":"STARLINK-31297","OBJECT_ID":"2024-044G","EPOCH":"2025-12-22T12:45:02.854656","MEAN_MOTION":15.27584296,"ECCENTRICITY":0.00016877,"INCLINATION":43.0002,"RA_OF_ASC_NODE":182.9104,"ARG_OF_PERICENTER":273.6715,"MEAN_ANOMALY":86.3943,"EPHEMERIS_TYPE":0,"CLASSIFICATION_TYPE":"U","NORAD_CAT_ID":59158,"ELEMENT_SET_NO":999,"REV_AT_EPOCH":10179,"BSTAR":0.00012077262,"MEAN_MOTION_DOT":3.063e-5,"MEAN_MOTION_DDOT":0},{"OBJECT_NAME":"STARLINK-31182","OBJECT_ID":"2024-044H","EPOCH":"2025-12-22T19:42:10.010880","MEAN_MOTION":15.27579048,"ECCENTRICITY":9.01e-5,"INCLINATION":43.0001,"RA_OF_ASC_NODE":180.7872,"ARG_OF_PERICENTER":270.8654,"MEAN_ANOMALY":89.2094,"EPHEMERIS_TYPE":0,"CLASSIFICATION_TYPE":"U","NORAD_CAT_ID":59159,"ELEMENT_SET_NO":999,"REV_AT_EPOCH":10184,"BSTAR":4.0046e-6,"MEAN_MOTION_DOT":-1.52e-6,"MEAN_MOTION_DDOT":0},{"OBJECT_NAME":"STARLINK-31327","OBJECT_ID":"2024-044J","EPOCH":"2025-12-22T12:48:44.750592","MEAN_MOTION":15.27580811,"ECCENTRICITY":0.00013408,"INCLINATION":43.0005,"RA_OF_ASC_NODE":182.9271,"ARG_OF_PERICENTER":264.6077,"MEAN_ANOMALY":95.4622,"EPHEMERIS_TYPE":0,"CLASSIFICATION_TYPE":"U","NORAD_CAT_ID":59160,"ELEMENT_SET_NO":999,"REV_AT_EPOCH":10179,"BSTAR":3.1369861e-5,"MEAN_MOTION_DOT":6.01e-6,"MEAN_MOTION_DDOT":0},{"OBJECT_NAME":"STARLINK-31256","OBJECT_ID":"2024-044K","EPOCH":"2025-12-22T19:47:43.102752","MEAN_MOTION":15.27594243,"ECCENTRICITY":0.0001241,"INCLINATION":43.0003,"RA_OF_ASC_NODE":180.8174,"ARG_OF_PERICENTER":253.2578,"MEAN_ANOMALY":106.8138,"EPHEMERIS_TYPE":0,"CLASSIFICATION_TYPE":"U","NORAD_CAT_ID":59161,"ELEMENT_SET_NO":999,"REV_AT_EPOCH":10184,"BSTAR":4.3418e-5,"MEAN_MOTION_DOT":9.33e-6,"MEAN_MOTION_DDOT":0},{"OBJECT_NAME":"STARLINK-31272","OBJECT_ID":"2024-044L","EPOCH":"2025-12-22T19:53:15.952704","MEAN_MOTION":15.27579944,"ECCENTRICITY":0.0001005,"INCLINATION":43.0006,"RA_OF_ASC_NODE":180.8458,"ARG_OF_PERICENTER":272.8801,"MEAN_ANOMALY":87.1935,"EPHEMERIS_TYPE":0,"CLASSIFICATION_TYPE":"U","NORAD_CAT_ID":59162,"ELEMENT_SET_NO":999,"REV_AT_EPOCH":10181,"BSTAR":2.7991e-5,"MEAN_MOTION_DOT":5.08e-6,"MEAN_MOTION_DDOT":0},{"OBJECT_NAME":"STARLINK-31278","OBJECT_ID":"2024-044M","EPOCH":"2025-12-22T12:08:02.631264","MEAN_MOTION":15.27581614,"ECCENTRICITY":9.759e-5,"INCLINATION":43.002,"RA_OF_ASC_NODE":182.7213,"ARG_OF_PERICENTER":265.2152,"MEAN_ANOMALY":94.8589,"EPHEMERIS_TYPE":0,"CLASSIFICATION_TYPE":"U","NORAD_CAT_ID":59163,"ELEMENT_SET_NO":999,"REV_AT_EPOCH":10176,"BSTAR":3.9788237e-5,"MEAN_MOTION_DOT":8.33e-6,"MEAN_MOTION_DDOT":0},{"OBJECT_NAME":"STARLINK-31309","OBJECT_ID":"2024-044N","EPOCH":"2025-12-22T13:47:45.124512","MEAN_MOTION":15.27592771,"ECCENTRICITY":0.00012841,"INCLINATION":43.0016,"RA_OF_ASC_NODE":182.3832,"ARG_OF_PERICENTER":244.7154,"MEAN_ANOMALY":115.3565,"EPHEMERIS_TYPE":0,"CLASSIFICATION_TYPE":"U","NORAD_CAT_ID":59164,"ELEMENT_SET_NO":999,"REV_AT_EPOCH":10180,"BSTAR":5.3318737e-5,"MEAN_MOTION_DOT":1.206e-5,"MEAN_MOTION_DDOT":0},{"OBJECT_NAME":"STARLINK-31325","OBJECT_ID":"2024-044P","EPOCH":"2025-12-22T13:51:26.794944","MEAN_MOTION":15.27577726,"ECCENTRICITY":9.873e-5,"INCLINATION":43.0025,"RA_OF_ASC_NODE":182.4029,"ARG_OF_PERICENTER":259.6159,"MEAN_ANOMALY":100.4581,"EPHEMERIS_TYPE":0,"CLASSIFICATION_TYPE":"U","NORAD_CAT_ID":59165,"ELEMENT_SET_NO":999,"REV_AT_EPOCH":10177,"BSTAR":4.5131333e-5,"MEAN_MOTION_DOT":9.8e-6,"MEAN_MOTION_DDOT":0},{"OBJECT_NAME":"STARLINK-31342","OBJECT_ID":"2024-044Q","EPOCH":"2025-12-22T12:22:50.614176","MEAN_MOTION":15.27576584,"ECCENTRICITY":0.00012236,"INCLINATION":43.0024,"RA_OF_ASC_NODE":182.8005,"ARG_OF_PERICENTER":265.391,"MEAN_ANOMALY":94.6802,"EPHEMERIS_TYPE":0,"CLASSIFICATION_TYPE":"U","NORAD_CAT_ID":59166,"ELEMENT_SET_NO":999,"REV_AT_EPOCH":10179,"BSTAR":3.9421785e-5,"MEAN_MOTION_DOT":8.23e-6,"MEAN_MOTION_DDOT":0},{"OBJECT_NAME":"STARLINK-31298","OBJECT_ID":"2024-044R","EPOCH":"2025-12-22T06:11:46.406400","MEAN_MOTION":15.27600255,"ECCENTRICITY":0.00014702,"INCLINATION":43.0009,"RA_OF_ASC_NODE":184.3028,"ARG_OF_PERICENTER":265.67,"MEAN_ANOMALY":94.3983,"EPHEMERIS_TYPE":0,"CLASSIFICATION_TYPE":"U","NORAD_CAT_ID":59167,"ELEMENT_SET_NO":999,"REV_AT_EPOCH":10172,"BSTAR":0.00017630459,"MEAN_MOTION_DOT":4.595e-5,"MEAN_MOTION_DDOT":0},{"OBJECT_NAME":"STARLINK-31322","OBJECT_ID":"2024-044S","EPOCH":"2025-12-22T19:22:01.651584","MEAN_MOTION":15.27577387,"ECCENTRICITY":0.0001305,"INCLINATION":42.999,"RA_OF_ASC_NODE":181.5325,"ARG_OF_PERICENTER":274.084,"MEAN_ANOMALY":85.9863,"EPHEMERIS_TYPE":0,"CLASSIFICATION_TYPE":"U","NORAD_CAT_ID":59168,"ELEMENT_SET_NO":999,"REV_AT_EPOCH":10183,"BSTAR":1.7086e-5,"MEAN_MOTION_DOT":2.08e-6,"MEAN_MOTION_DDOT":0},{"OBJECT_NAME":"STARLINK-31329","OBJECT_ID":"2024-044T","EPOCH":"2025-12-22T12:54:17.859744","MEAN_MOTION":15.27580643,"ECCENTRICITY":0.00011245,"INCLINATION":42.9998,"RA_OF_ASC_NODE":182.9523,"ARG_OF_PERICENTER":263.6564,"MEAN_ANOMALY":96.4159,"EPHEMERIS_TYPE":0,"CLASSIFICATION_TYPE":"U","NORAD_CAT_ID":59169,"ELEMENT_SET_NO":999,"REV_AT_EPOCH":10176,"BSTAR":3.0278892e-5,"MEAN_MOTION_DOT":5.71e-6,"MEAN_MOTION_DDOT":0}]
